JY1SAT (JO-97)          
1 43803U 18099AX  26068.68634132  .00017774  00000+0  60804-3 0  9996
2 43803  97.4249 131.3625 0004723 256.6795 103.3919 15.30302628398390
STARLINK-34618          
1 64770U 25147R   26068.76124778  .00036273  00000+0  12309-2 0  9994
2 64770  53.1582 242.3526 0000764  48.9361 311.1706 15.30198566 38691
